{
 "type": "FeatureCollection",
 "metadata": {
  "title": "Who holidays where",
  "source": "Hand-compiled. Ratings are a judgement call, not a statistic.",
  "rating": "0 not notable, 1 light, 3 heavy, 5 the defining crowd of the place",
  "properties": "british, german, french and spanish are each 0-5. spanish means Spanish domestic holidaymakers.",
  "scope": "Spain and Portugal: resorts, plus the cities tourists actually go to."
 },
 "features": [
  {
   "type": "Feature",
   "properties": {
    "name": "Benidorm",
    "region": "Costa Blanca",
    "british": 5,
    "german": 1,
    "french": 1,
    "spanish": 4,
    "note": "British archetype, but half the high-rises are full of Spaniards from Madrid."
   },
   "geometry": {
    "type": "Point",
    "coordinates": [
     -0.131,
     38.5342
    ]
   }
  },
  {
   "type": "Feature",
   "properties": {
    "name": "Magaluf",
    "region": "Mallorca",
    "british": 5,
    "german": 1,
    "french": 0,
    "spanish": 1,
    "note": "Stag and hen capital. Germans are three miles east and never meet them."
   },
   "geometry": {
    "type": "Point",
    "coordinates": [
     2.53,
     39.51
    ]
   }
  },
  {
   "type": "Feature",
   "properties": {
    "name": "Platja de Palma",
    "region": "Mallorca",
    "british": 1,
    "german": 5,
    "french": 0,
    "spanish": 1,
    "note": "Ballermann. The German Magaluf, down to the beer steins and schlager."
   },
   "geometry": {
    "type": "Point",
    "coordinates": [
     2.748,
     39.51
    ]
   }
  },
  {
   "type": "Feature",
   "properties": {
    "name": "Palmanova",
    "region": "Mallorca",
    "british": 4,
    "german": 2,
    "french": 0,
    "spanish": 1,
    "note": "Magaluf's quieter neighbour. Only just."
   },
   "geometry": {
    "type": "Point",
    "coordinates": [
     2.535,
     39.529
    ]
   }
  },
  {
   "type": "Feature",
   "properties": {
    "name": "Alcúdia",
    "region": "Mallorca",
    "british": 3,
    "german": 4,
    "french": 1,
    "spanish": 2,
    "note": "Family end of the market, tilting German. Old town worth the detour."
   },
   "geometry": {
    "type": "Point",
    "coordinates": [
     3.12,
     39.853
    ]
   }
  },
  {
   "type": "Feature",
   "properties": {
    "name": "Cala d'Or",
    "region": "Mallorca",
    "british": 2,
    "german": 4,
    "french": 1,
    "spanish": 1,
    "note": "Whitewashed calas, German package trade, very quiet by ten."
   },
   "geometry": {
    "type": "Point",
    "coordinates": [
     3.234,
     39.372
    ]
   }
  },
  {
   "type": "Feature",
   "properties": {
    "name": "Sant Antoni de Portmany",
    "region": "Ibiza",
    "british": 5,
    "german": 2,
    "french": 1,
    "spanish": 2,
    "note": "The West End strip. Sunset Strip is the tolerable half."
   },
   "geometry": {
    "type": "Point",
    "coordinates": [
     1.301,
     38.98
    ]
   }
  },
  {
   "type": "Feature",
   "properties": {
    "name": "Ibiza Town",
    "region": "Ibiza",
    "british": 3,
    "german": 3,
    "french": 3,
    "spanish": 3,
    "note": "The one genuinely pan-European crowd on this map."
   },
   "geometry": {
    "type": "Point",
    "coordinates": [
     1.432,
     38.907
    ]
   }
  },
  {
   "type": "Feature",
   "properties": {
    "name": "Ciutadella",
    "region": "Menorca",
    "british": 3,
    "german": 1,
    "french": 2,
    "spanish": 3,
    "note": "Menorca stayed low-rise and mostly Spanish and British."
   },
   "geometry": {
    "type": "Point",
    "coordinates": [
     3.839,
     40.0
    ]
   }
  },
  {
   "type": "Feature",
   "properties": {
    "name": "Torremolinos",
    "region": "Costa del Sol",
    "british": 4,
    "german": 2,
    "french": 1,
    "spanish": 3,
    "note": "Where the package holiday was invented. Faded, cheerful, still busy."
   },
   "geometry": {
    "type": "Point",
    "coordinates": [
     -4.4999,
     36.6249
    ]
   }
  },
  {
   "type": "Feature",
   "properties": {
    "name": "Benalmádena",
    "region": "Costa del Sol",
    "british": 4,
    "german": 2,
    "french": 1,
    "spanish": 3,
    "note": "Arroyo de la Miel and the marina. Bars showing the football."
   },
   "geometry": {
    "type": "Point",
    "coordinates": [
     -4.5163,
     36.5988
    ]
   }
  },
  {
   "type": "Feature",
   "properties": {
    "name": "Fuengirola",
    "region": "Costa del Sol",
    "british": 4,
    "german": 2,
    "french": 1,
    "spanish": 3,
    "note": "Long beach, long-standing British and Finnish contingents."
   },
   "geometry": {
    "type": "Point",
    "coordinates": [
     -4.6266,
     36.5397
    ]
   }
  },
  {
   "type": "Feature",
   "properties": {
    "name": "Marbella",
    "region": "Costa del Sol",
    "british": 3,
    "german": 2,
    "french": 2,
    "spanish": 3,
    "note": "Money rather than lager, but Puerto Banús is Puerto Banús."
   },
   "geometry": {
    "type": "Point",
    "coordinates": [
     -4.8863,
     36.5101
    ]
   }
  },
  {
   "type": "Feature",
   "properties": {
    "name": "Estepona",
    "region": "Costa del Sol",
    "british": 2,
    "german": 2,
    "french": 1,
    "spanish": 3,
    "note": "The Costa del Sol town that kept its old quarter."
   },
   "geometry": {
    "type": "Point",
    "coordinates": [
     -5.1459,
     36.4276
    ]
   }
  },
  {
   "type": "Feature",
   "properties": {
    "name": "Nerja",
    "region": "Costa del Sol",
    "british": 3,
    "german": 2,
    "french": 1,
    "spanish": 3,
    "note": "Prettier, older crowd. Long-settled British population."
   },
   "geometry": {
    "type": "Point",
    "coordinates": [
     -3.8746,
     36.7451
    ]
   }
  },
  {
   "type": "Feature",
   "properties": {
    "name": "Almuñécar",
    "region": "Costa Tropical",
    "british": 1,
    "german": 1,
    "french": 1,
    "spanish": 5,
    "note": "Granada's beach. Almost entirely domestic, and all the better for it."
   },
   "geometry": {
    "type": "Point",
    "coordinates": [
     -3.6907,
     36.734
    ]
   }
  },
  {
   "type": "Feature",
   "properties": {
    "name": "Torrevieja",
    "region": "Costa Blanca",
    "british": 4,
    "german": 1,
    "french": 1,
    "spanish": 4,
    "note": "Expat belt and Madrid's second home in equal measure."
   },
   "geometry": {
    "type": "Point",
    "coordinates": [
     -0.68,
     37.9787
    ]
   }
  },
  {
   "type": "Feature",
   "properties": {
    "name": "Calp",
    "region": "Costa Blanca",
    "british": 2,
    "german": 3,
    "french": 2,
    "spanish": 3,
    "note": "German and Dutch lean. The Peñón is the actual draw."
   },
   "geometry": {
    "type": "Point",
    "coordinates": [
     0.045,
     38.644
    ]
   }
  },
  {
   "type": "Feature",
   "properties": {
    "name": "Xàbia",
    "region": "Costa Blanca",
    "british": 3,
    "german": 2,
    "french": 2,
    "spanish": 3,
    "note": "Expat belt. Pleasant, and thoroughly colonised."
   },
   "geometry": {
    "type": "Point",
    "coordinates": [
     0.162,
     38.789
    ]
   }
  },
  {
   "type": "Feature",
   "properties": {
    "name": "Gandia",
    "region": "Costa de Valencia",
    "british": 0,
    "german": 0,
    "french": 1,
    "spanish": 5,
    "note": "Valencia and Madrid decamp here in August. Barely a foreign accent."
   },
   "geometry": {
    "type": "Point",
    "coordinates": [
     -0.163,
     39.0
    ]
   }
  },
  {
   "type": "Feature",
   "properties": {
    "name": "Peñíscola",
    "region": "Costa del Azahar",
    "british": 1,
    "german": 1,
    "french": 2,
    "spanish": 5,
    "note": "Castle on a rock, packed with Spanish families and Aragonese plates."
   },
   "geometry": {
    "type": "Point",
    "coordinates": [
     0.407,
     40.358
    ]
   }
  },
  {
   "type": "Feature",
   "properties": {
    "name": "Benicàssim",
    "region": "Costa del Azahar",
    "british": 2,
    "german": 1,
    "french": 1,
    "spanish": 4,
    "note": "Domestic beach town that borrows a British crowd for festival week."
   },
   "geometry": {
    "type": "Point",
    "coordinates": [
     0.063,
     40.054
    ]
   }
  },
  {
   "type": "Feature",
   "properties": {
    "name": "La Manga",
    "region": "Murcia",
    "british": 2,
    "german": 1,
    "french": 1,
    "spanish": 4,
    "note": "A sandbar of flats between two seas. Overwhelmingly Spanish."
   },
   "geometry": {
    "type": "Point",
    "coordinates": [
     -0.72,
     37.64
    ]
   }
  },
  {
   "type": "Feature",
   "properties": {
    "name": "Roquetas de Mar",
    "region": "Costa de Almería",
    "british": 2,
    "german": 3,
    "french": 1,
    "spanish": 4,
    "note": "Big German package presence beside a very Spanish resort town."
   },
   "geometry": {
    "type": "Point",
    "coordinates": [
     -2.614,
     36.764
    ]
   }
  },
  {
   "type": "Feature",
   "properties": {
    "name": "Mojácar",
    "region": "Costa de Almería",
    "british": 3,
    "german": 1,
    "french": 1,
    "spanish": 3,
    "note": "White hill village above a strip of British-leaning beach bars."
   },
   "geometry": {
    "type": "Point",
    "coordinates": [
     -1.85,
     37.14
    ]
   }
  },
  {
   "type": "Feature",
   "properties": {
    "name": "Lloret de Mar",
    "region": "Costa Brava",
    "british": 3,
    "german": 2,
    "french": 4,
    "spanish": 2,
    "note": "French and Dutch coaches as much as British stag parties."
   },
   "geometry": {
    "type": "Point",
    "coordinates": [
     2.845,
     41.7005
    ]
   }
  },
  {
   "type": "Feature",
   "properties": {
    "name": "Empuriabrava",
    "region": "Costa Brava",
    "british": 0,
    "german": 2,
    "french": 5,
    "spanish": 2,
    "note": "Canal-side marina town, an hour from the border. Effectively French."
   },
   "geometry": {
    "type": "Point",
    "coordinates": [
     3.12,
     42.247
    ]
   }
  },
  {
   "type": "Feature",
   "properties": {
    "name": "Roses",
    "region": "Costa Brava",
    "british": 1,
    "german": 2,
    "french": 5,
    "spanish": 3,
    "note": "The French weekend. Signs and menus follow suit."
   },
   "geometry": {
    "type": "Point",
    "coordinates": [
     3.177,
     42.262
    ]
   }
  },
  {
   "type": "Feature",
   "properties": {
    "name": "L'Escala",
    "region": "Costa Brava",
    "british": 1,
    "german": 1,
    "french": 4,
    "spanish": 3,
    "note": "Anchovies, Greek ruins at Empúries, and a French summer crowd."
   },
   "geometry": {
    "type": "Point",
    "coordinates": [
     3.133,
     42.124
    ]
   }
  },
  {
   "type": "Feature",
   "properties": {
    "name": "Cadaqués",
    "region": "Costa Brava",
    "british": 2,
    "german": 2,
    "french": 4,
    "spanish": 3,
    "note": "Dalí's village. French day-trippers and Barcelona money."
   },
   "geometry": {
    "type": "Point",
    "coordinates": [
     3.277,
     42.289
    ]
   }
  },
  {
   "type": "Feature",
   "properties": {
    "name": "Salou",
    "region": "Costa Daurada",
    "british": 4,
    "german": 1,
    "french": 3,
    "spanish": 3,
    "note": "PortAventura feeder town. British, French and Spanish families all."
   },
   "geometry": {
    "type": "Point",
    "coordinates": [
     1.1417,
     41.0763
    ]
   }
  },
  {
   "type": "Feature",
   "properties": {
    "name": "Cambrils",
    "region": "Costa Daurada",
    "british": 1,
    "german": 1,
    "french": 3,
    "spanish": 4,
    "note": "Salou's grown-up neighbour: seafood, and a domestic crowd."
   },
   "geometry": {
    "type": "Point",
    "coordinates": [
     1.06,
     41.07
    ]
   }
  },
  {
   "type": "Feature",
   "properties": {
    "name": "Sitges",
    "region": "Costa del Garraf",
    "british": 3,
    "german": 2,
    "french": 2,
    "spanish": 3,
    "note": "Barcelona's beach and a long-standing gay resort. Cosmopolitan."
   },
   "geometry": {
    "type": "Point",
    "coordinates": [
     1.811,
     41.235
    ]
   }
  },
  {
   "type": "Feature",
   "properties": {
    "name": "Barcelona",
    "region": "Catalonia",
    "british": 3,
    "german": 3,
    "french": 4,
    "spanish": 3,
    "note": "Everyone. The French arrive by train in numbers nobody counts."
   },
   "geometry": {
    "type": "Point",
    "coordinates": [
     2.1734,
     41.3851
    ]
   }
  },
  {
   "type": "Feature",
   "properties": {
    "name": "San Sebastián",
    "region": "Basque Country",
    "british": 2,
    "german": 2,
    "french": 5,
    "spanish": 4,
    "note": "Twenty minutes from France, and it shows all summer."
   },
   "geometry": {
    "type": "Point",
    "coordinates": [
     -1.9812,
     43.3183
    ]
   }
  },
  {
   "type": "Feature",
   "properties": {
    "name": "Hondarribia",
    "region": "Basque Country",
    "british": 1,
    "german": 1,
    "french": 4,
    "spanish": 3,
    "note": "Border town. Half the terrace is over from Hendaye for lunch."
   },
   "geometry": {
    "type": "Point",
    "coordinates": [
     -1.797,
     43.364
    ]
   }
  },
  {
   "type": "Feature",
   "properties": {
    "name": "Zarautz",
    "region": "Basque Country",
    "british": 1,
    "german": 1,
    "french": 3,
    "spanish": 4,
    "note": "Surf beach with a Spanish and French crowd, no package trade."
   },
   "geometry": {
    "type": "Point",
    "coordinates": [
     -2.17,
     43.284
    ]
   }
  },
  {
   "type": "Feature",
   "properties": {
    "name": "Santander",
    "region": "Cantabria",
    "british": 1,
    "german": 1,
    "french": 2,
    "spanish": 5,
    "note": "Where Madrid goes to escape August. Sardinero is all domestic."
   },
   "geometry": {
    "type": "Point",
    "coordinates": [
     -3.808,
     43.462
    ]
   }
  },
  {
   "type": "Feature",
   "properties": {
    "name": "Llanes",
    "region": "Asturias",
    "british": 1,
    "german": 1,
    "french": 2,
    "spanish": 5,
    "note": "Green coast, cider, and Spanish families who booked last October."
   },
   "geometry": {
    "type": "Point",
    "coordinates": [
     -4.755,
     43.421
    ]
   }
  },
  {
   "type": "Feature",
   "properties": {
    "name": "Gijón",
    "region": "Asturias",
    "british": 1,
    "german": 1,
    "french": 1,
    "spanish": 5,
    "note": "A working city with a beach, and almost no foreign tourism."
   },
   "geometry": {
    "type": "Point",
    "coordinates": [
     -5.6615,
     43.5453
    ]
   }
  },
  {
   "type": "Feature",
   "properties": {
    "name": "Sanxenxo",
    "region": "Rías Baixas",
    "british": 0,
    "german": 0,
    "french": 1,
    "spanish": 5,
    "note": "Galicia's summer capital. Madrid and Galicia, nobody else."
   },
   "geometry": {
    "type": "Point",
    "coordinates": [
     -8.808,
     42.4
    ]
   }
  },
  {
   "type": "Feature",
   "properties": {
    "name": "A Coruña",
    "region": "Galicia",
    "british": 1,
    "german": 1,
    "french": 1,
    "spanish": 4,
    "note": "Glass balconies, good food, and a domestic crowd."
   },
   "geometry": {
    "type": "Point",
    "coordinates": [
     -8.4115,
     43.3623
    ]
   }
  },
  {
   "type": "Feature",
   "properties": {
    "name": "Conil de la Frontera",
    "region": "Costa de la Luz",
    "british": 1,
    "german": 2,
    "french": 1,
    "spanish": 5,
    "note": "Seville and Madrid in August. Atlantic wind keeps the package trade off."
   },
   "geometry": {
    "type": "Point",
    "coordinates": [
     -6.094,
     36.277
    ]
   }
  },
  {
   "type": "Feature",
   "properties": {
    "name": "Zahara de los Atunes",
    "region": "Costa de la Luz",
    "british": 1,
    "german": 2,
    "french": 1,
    "spanish": 5,
    "note": "Tuna, dunes, and a well-heeled Spanish crowd."
   },
   "geometry": {
    "type": "Point",
    "coordinates": [
     -5.848,
     36.137
    ]
   }
  },
  {
   "type": "Feature",
   "properties": {
    "name": "Chiclana",
    "region": "Costa de la Luz",
    "british": 1,
    "german": 3,
    "french": 1,
    "spanish": 4,
    "note": "Novo Sancti Petri is where German package holidays go on the Atlantic."
   },
   "geometry": {
    "type": "Point",
    "coordinates": [
     -6.149,
     36.419
    ]
   }
  },
  {
   "type": "Feature",
   "properties": {
    "name": "Tarifa",
    "region": "Costa de la Luz",
    "british": 2,
    "german": 4,
    "french": 2,
    "spanish": 3,
    "note": "Kitesurfing brings the Germans; the wind keeps everyone else away."
   },
   "geometry": {
    "type": "Point",
    "coordinates": [
     -5.6,
     36.014
    ]
   }
  },
  {
   "type": "Feature",
   "properties": {
    "name": "El Puerto de Santa María",
    "region": "Costa de la Luz",
    "british": 1,
    "german": 1,
    "french": 1,
    "spanish": 4,
    "note": "Sherry, tuna and a Sevillano summer crowd."
   },
   "geometry": {
    "type": "Point",
    "coordinates": [
     -6.233,
     36.594
    ]
   }
  },
  {
   "type": "Feature",
   "properties": {
    "name": "Gibraltar",
    "region": "Gibraltar",
    "british": 5,
    "german": 1,
    "french": 1,
    "spanish": 2,
    "note": "Not a resort, actually British. Marks and Spencer and monkeys."
   },
   "geometry": {
    "type": "Point",
    "coordinates": [
     -5.3536,
     36.1408
    ]
   }
  },
  {
   "type": "Feature",
   "properties": {
    "name": "Granada",
    "region": "Andalucía",
    "british": 3,
    "german": 3,
    "french": 4,
    "spanish": 4,
    "note": "The Alhambra draws every nationality on this map at once."
   },
   "geometry": {
    "type": "Point",
    "coordinates": [
     -3.5986,
     37.1773
    ]
   }
  },
  {
   "type": "Feature",
   "properties": {
    "name": "Jaca",
    "region": "Pyrenees",
    "british": 0,
    "german": 1,
    "french": 3,
    "spanish": 4,
    "note": "Ski and mountain town. Spanish, with French over the pass."
   },
   "geometry": {
    "type": "Point",
    "coordinates": [
     -0.549,
     42.57
    ]
   }
  },
  {
   "type": "Feature",
   "properties": {
    "name": "Albufeira",
    "region": "Algarve",
    "british": 5,
    "german": 3,
    "french": 2,
    "spanish": 1,
    "note": "The Strip. Portugal's answer to Benidorm."
   },
   "geometry": {
    "type": "Point",
    "coordinates": [
     -8.25,
     37.089
    ]
   }
  },
  {
   "type": "Feature",
   "properties": {
    "name": "Praia da Rocha",
    "region": "Algarve",
    "british": 4,
    "german": 3,
    "french": 2,
    "spanish": 1,
    "note": "Portimão's beach strip. Cliffs are genuinely good, crowd is not."
   },
   "geometry": {
    "type": "Point",
    "coordinates": [
     -8.534,
     37.118
    ]
   }
  },
  {
   "type": "Feature",
   "properties": {
    "name": "Lagos",
    "region": "Algarve",
    "british": 3,
    "german": 3,
    "french": 2,
    "spanish": 1,
    "note": "Backpackers and surfers alongside the package crowd."
   },
   "geometry": {
    "type": "Point",
    "coordinates": [
     -8.673,
     37.102
    ]
   }
  },
  {
   "type": "Feature",
   "properties": {
    "name": "Vilamoura",
    "region": "Algarve",
    "british": 3,
    "german": 2,
    "french": 2,
    "spanish": 1,
    "note": "Golf and marina. Sedate, moneyed, entirely inauthentic."
   },
   "geometry": {
    "type": "Point",
    "coordinates": [
     -8.12,
     37.077
    ]
   }
  },
  {
   "type": "Feature",
   "properties": {
    "name": "Valencia",
    "region": "Valencia",
    "british": 3,
    "german": 2,
    "french": 3,
    "spanish": 4,
    "note": "City break boom: Fallas, paella and a growing British stag trade."
   },
   "geometry": {
    "type": "Point",
    "coordinates": [
     -0.3763,
     39.4699
    ]
   }
  },
  {
   "type": "Feature",
   "properties": {
    "name": "Madrid",
    "region": "Madrid",
    "british": 3,
    "german": 3,
    "french": 3,
    "spanish": 4,
    "note": "Everyone passes through. August belongs to whoever stayed behind."
   },
   "geometry": {
    "type": "Point",
    "coordinates": [
     -3.7038,
     40.4168
    ]
   }
  },
  {
   "type": "Feature",
   "properties": {
    "name": "Bilbao",
    "region": "Basque Country",
    "british": 2,
    "german": 2,
    "french": 4,
    "spanish": 4,
    "note": "The Guggenheim, and the French over for the weekend."
   },
   "geometry": {
    "type": "Point",
    "coordinates": [
     -2.935,
     43.263
    ]
   }
  },
  {
   "type": "Feature",
   "properties": {
    "name": "Málaga",
    "region": "Costa del Sol",
    "british": 4,
    "german": 3,
    "french": 2,
    "spanish": 4,
    "note": "The Costa del Sol's city, and lately the reason people skip the resorts."
   },
   "geometry": {
    "type": "Point",
    "coordinates": [
     -4.4214,
     36.7213
    ]
   }
  },
  {
   "type": "Feature",
   "properties": {
    "name": "Porto",
    "region": "Norte",
    "british": 4,
    "german": 3,
    "french": 4,
    "spanish": 3,
    "note": "Port lodges and cheap flights. As busy as Valencia, on half the residents."
   },
   "geometry": {
    "type": "Point",
    "coordinates": [
     -8.611,
     41.1496
    ]
   }
  },
  {
   "type": "Feature",
   "properties": {
    "name": "Lisbon",
    "region": "Lisboa",
    "british": 4,
    "german": 3,
    "french": 4,
    "spanish": 3,
    "note": "Tuk-tuks in Alfama. The city that ran out of long lets."
   },
   "geometry": {
    "type": "Point",
    "coordinates": [
     -9.1393,
     38.7223
    ]
   }
  },
  {
   "type": "Feature",
   "properties": {
    "name": "Santiago de Compostela",
    "region": "Galicia",
    "british": 2,
    "german": 3,
    "french": 3,
    "spanish": 4,
    "note": "Pilgrims of every nationality, and Spanish ones in the greatest number."
   },
   "geometry": {
    "type": "Point",
    "coordinates": [
     -8.5448,
     42.8805
    ]
   }
  },
  {
   "type": "Feature",
   "properties": {
    "name": "Seville",
    "region": "Andalucía",
    "british": 3,
    "german": 3,
    "french": 4,
    "spanish": 4,
    "note": "French city breaks in spring, everyone else in the shade by July."
   },
   "geometry": {
    "type": "Point",
    "coordinates": [
     -5.9845,
     37.3891
    ]
   }
  }
 ]
}
